{
  "type": "FeatureCollection",
  "features": [
    {
      "type": "Feature",
      "properties": {
        "norad_id": 65729,
        "name": "DRAGONFLY",
        "group": "stations",
        "lat": 34.38904930714513,
        "lon": -50.85387286373775,
        "alt_km": 356.21678741379856,
        "timestamp": "2025-12-07T14:37:04.011143+00:00",
        "meta_object_name": "DRAGONFLY",
        "meta_object_id": "1998-067XH",
        "meta_epoch": "2025-12-06T18:11:12.021792",
        "meta_mean_motion": 15.69539731,
        "meta_eccentricity": 0.00064636,
        "meta_inclination": 51.6244,
        "meta_ra_of_asc_node": 166.34,
        "meta_arg_of_pericenter": 240.1975,
        "meta_mean_anomaly": 119.838,
        "meta_ephemeris_type": 0,
        "meta_classification_type": "U",
        "meta_norad_cat_id": 65729,
        "meta_element_set_no": 999,
        "meta_rev_at_epoch": 1222,
        "meta_bstar": 0.0016006166,
        "meta_mean_motion_dot": 0.00197078,
        "meta_mean_motion_ddot": 0,
        "tle_line1": "1 65729U 98067XH  25340.75777803  .00197078  00000+0  16006-2 0  9993",
        "tle_line2": "2 65729  51.6244 166.3400 0006463 240.1975 119.8380 15.69539731 12226"
      },
      "geometry": {
        "type": "Point",
        "coordinates": [
          -50.85387286373775,
          34.38904930714513
        ]
      }
    },
    {
      "type": "Feature",
      "properties": {
        "norad_id": 65731,
        "name": "1998-067XK",
        "group": "stations",
        "lat": -51.231565920605306,
        "lon": 63.85849069700579,
        "alt_km": 376.8617930795526,
        "timestamp": "2025-12-07T14:37:04.011154+00:00",
        "meta_object_name": "1998-067XK",
        "meta_object_id": "1998-067XK",
        "meta_epoch": "2025-12-06T19:05:46.784832",
        "meta_mean_motion": 15.6431708,
        "meta_eccentricity": 0.00056148,
        "meta_inclination": 51.6275,
        "meta_ra_of_asc_node": 167.356,
        "meta_arg_of_pericenter": 209.7044,
        "meta_mean_anomaly": 150.3633,
        "meta_ephemeris_type": 0,
        "meta_classification_type": "U",
        "meta_norad_cat_id": 65731,
        "meta_element_set_no": 999,
        "meta_rev_at_epoch": 1221,
        "meta_bstar": 0.001226721,
        "meta_mean_motion_dot": 0.00120927,
        "meta_mean_motion_ddot": 0,
        "tle_line1": "1 65731U 98067XK  25340.79568038  .00120927  00000+0  12267-2 0  9992",
        "tle_line2": "2 65731  51.6275 167.3560 0005614 209.7044 150.3633 15.64317080 12212"
      },
      "geometry": {
        "type": "Point",
        "coordinates": [
          63.85849069700579,
          -51.231565920605306
        ]
      }
    },
    {
      "type": "Feature",
      "properties": {
        "norad_id": 65732,
        "name": "RSP-03",
        "group": "stations",
        "lat": -5.405777995876751,
        "lon": -13.060696624015256,
        "alt_km": 365.07719051337244,
        "timestamp": "2025-12-07T14:37:04.011164+00:00",
        "meta_object_name": "RSP-03",
        "meta_object_id": "1998-067XL",
        "meta_epoch": "2025-12-06T19:27:20.778624",
        "meta_mean_motion": 15.66782346,
        "meta_eccentricity": 0.00064361,
        "meta_inclination": 51.6255,
        "meta_ra_of_asc_node": 166.6987,
        "meta_arg_of_pericenter": 212.9717,
        "meta_mean_anomaly": 147.0878,
        "meta_ephemeris_type": 0,
        "meta_classification_type": "U",
        "meta_norad_cat_id": 65732,
        "meta_element_set_no": 999,
        "meta_rev_at_epoch": 1223,
        "meta_bstar": 0.0014177456,
        "meta_mean_motion_dot": 0.00155052,
        "meta_mean_motion_ddot": 0,
        "tle_line1": "1 65732U 98067XL  25340.81065716  .00155052  00000+0  14177-2 0  9990",
        "tle_line2": "2 65732  51.6255 166.6987 0006436 212.9717 147.0878 15.66782346 12231"
      },
      "geometry": {
        "type": "Point",
        "coordinates": [
          -13.060696624015256,
          -5.405777995876751
        ]
      }
    },
    {
      "type": "Feature",
      "properties": {
        "norad_id": 65733,
        "name": "GHS-01",
        "group": "stations",
        "lat": -0.7941869774522556,
        "lon": 160.90040171359817,
        "alt_km": 355.18712257167044,
        "timestamp": "2025-12-07T14:37:04.011174+00:00",
        "meta_object_name": "GHS-01",
        "meta_object_id": "1998-067XM",
        "meta_epoch": "2025-12-06T18:47:20.289408",
        "meta_mean_motion": 15.71874043,
        "meta_eccentricity": 0.00068988,
        "meta_inclination": 51.6272,
        "meta_ra_of_asc_node": 165.7632,
        "meta_arg_of_pericenter": 241.192,
        "meta_mean_anomaly": 118.8385,
        "meta_ephemeris_type": 0,
        "meta_classification_type": "U",
        "meta_norad_cat_id": 65733,
        "meta_element_set_no": 999,
        "meta_rev_at_epoch": 1224,
        "meta_bstar": 0.00174144,
        "meta_mean_motion_dot": 0.00237688,
        "meta_mean_motion_ddot": 0,
        "tle_line1": "1 65733U 98067XM  25340.78287372  .00237688  00000+0  17414-2 0  9994",
        "tle_line2": "2 65733  51.6272 165.7632 0006898 241.1920 118.8385 15.71874043 12242"
      },
      "geometry": {
        "type": "Point",
        "coordinates": [
          160.90040171359817,
          -0.7941869774522556
        ]
      }
    },
    {
      "type": "Feature",
      "properties": {
        "norad_id": 65941,
        "name": "YOTSUBA-KULOVER",
        "group": "stations",
        "lat": 31.663463485116118,
        "lon": -43.50809906483534,
        "alt_km": 387.06950424329625,
        "timestamp": "2025-12-07T14:37:04.011185+00:00",
        "meta_object_name": "YOTSUBA-KULOVER",
        "meta_object_id": "1998-067XN",
        "meta_epoch": "2025-12-06T19:33:42.622560",
        "meta_mean_motion": 15.58441577,
        "meta_eccentricity": 0.00019681,
        "meta_inclination": 51.6278,
        "meta_ra_of_asc_node": 169.7328,
        "meta_arg_of_pericenter": 197.1439,
        "meta_mean_anomaly": 162.9487,
        "meta_ephemeris_type": 0,
        "meta_classification_type": "U",
        "meta_norad_cat_id": 65941,
        "meta_element_set_no": 999,
        "meta_rev_at_epoch": 893,
        "meta_bstar": 0.0011638994,
        "meta_mean_motion_dot": 0.00090951,
        "meta_mean_motion_ddot": 0,
        "tle_line1": "1 65941U 98067XN  25340.81507665  .00090951  00000+0  11639-2 0  9992",
        "tle_line2": "2 65941  51.6278 169.7328 0001968 197.1439 162.9487 15.58441577  8934"
      },
      "geometry": {
        "type": "Point",
        "coordinates": [
          -43.50809906483534,
          31.663463485116118
        ]
      }
    },
    {
      "type": "Feature",
      "properties": {
        "norad_id": 65942,
        "name": "BOTAN",
        "group": "stations",
        "lat": 35.38417280224156,
        "lon": -160.5668855572991,
        "alt_km": 380.80766598224545,
        "timestamp": "2025-12-07T14:37:04.011195+00:00",
        "meta_object_name": "BOTAN",
        "meta_object_id": "1998-067XP",
        "meta_epoch": "2025-12-06T18:26:46.199328",
        "meta_mean_motion": 15.61316825,
        "meta_eccentricity": 0.00039822,
        "meta_inclination": 51.627,
        "meta_ra_of_asc_node": 169.4226,
        "meta_arg_of_pericenter": 191.5132,
        "meta_mean_anomaly": 168.5771,
        "meta_ephemeris_type": 0,
        "meta_classification_type": "U",
        "meta_norad_cat_id": 65942,
        "meta_element_set_no": 999,
        "meta_rev_at_epoch": 893,
        "meta_bstar": 0.001480583,
        "meta_mean_motion_dot": 0.00129965,
        "meta_mean_motion_ddot": 0,
        "tle_line1": "1 65942U 98067XP  25340.76859027  .00129965  00000+0  14806-2 0  9996",
        "tle_line2": "2 65942  51.6270 169.4226 0003982 191.5132 168.5771 15.61316825  8936"
      },
      "geometry": {
        "type": "Point",
        "coordinates": [
          -160.5668855572991,
          35.38417280224156
        ]
      }
    },
    {
      "type": "Feature",
      "properties": {
        "norad_id": 65943,
        "name": "E-KAGAKU-1",
        "group": "stations",
        "lat": 31.49063962652023,
        "lon": -43.28802042185359,
        "alt_km": 386.18941608358364,
        "timestamp": "2025-12-07T14:37:04.011205+00:00",
        "meta_object_name": "E-KAGAKU-1",
        "meta_object_id": "1998-067XQ",
        "meta_epoch": "2025-12-06T18:01:16.505472",
        "meta_mean_motion": 15.5838918,
        "meta_eccentricity": 0.00030246,
        "meta_inclination": 51.6289,
        "meta_ra_of_asc_node": 170.0575,
        "meta_arg_of_pericenter": 170.5434,
        "meta_mean_anomaly": 189.5616,
        "meta_ephemeris_type": 0,
        "meta_classification_type": "U",
        "meta_norad_cat_id": 65943,
        "meta_element_set_no": 999,
        "meta_rev_at_epoch": 892,
        "meta_bstar": 0.0011230983,
        "meta_mean_motion_dot": 0.00087541,
        "meta_mean_motion_ddot": 0,
        "tle_line1": "1 65943U 98067XQ  25340.75088548  .00087541  00000+0  11231-2 0  9990",
        "tle_line2": "2 65943  51.6289 170.0575 0003024 170.5434 189.5616 15.58389180  8921"
      },
      "geometry": {
        "type": "Point",
        "coordinates": [
          -43.28802042185359,
          31.49063962652023
        ]
      }
    }
  ]
}